STARLINK-2426           
1 47836U 21018BB  26068.73125604  .00005782  00000+0  20717-3 0  9991
2 47836  53.1591 244.8074 0001254  73.0469 287.0670 15.30201942276703
HAWK-11B                
1 62379U 24247C   26068.44730104  .00009093  00000+0  32842-3 0  9993
2 62379  45.0161 115.7610 0004690 333.0326  27.0314 15.28847070 67738
